[{"OBJECT_NAME":"TIANMU-1 07","OBJECT_ID":"2023-101A","EPOCH":"2026-03-06T13:47:20.454720","MEAN_MOTION":15.29118809,"ECCENTRICITY":0.00046097,"INCLINATION":97.2728,"RA_OF_ASC_NODE":118.5929,"ARG_OF_PERICENTER":142.4105,"MEAN_ANOMALY":217.7458,"EPHEMERIS_TYPE":0,"CLASSIFICATION_TYPE":"U","NORAD_CAT_ID":57399,"ELEMENT_SET_NO":999,"REV_AT_EPOCH":14596,"BSTAR":0.00029794732,"MEAN_MOTION_DOT":8.352e-5,"MEAN_MOTION_DDOT":0},{"OBJECT_NAME":"STARLINK-32024","OBJECT_ID":"2024-117X","EPOCH":"2026-03-09T21:56:48.176736","MEAN_MOTION":15.30182398,"ECCENTRICITY":0.00012794,"INCLINATION":53.1617,"RA_OF_ASC_NODE":35.8781,"ARG_OF_PERICENTER":77.7135,"MEAN_ANOMALY":282.4009,"EPHEMERIS_TYPE":0,"CLASSIFICATION_TYPE":"U","NORAD_CAT_ID":60112,"ELEMENT_SET_NO":999,"REV_AT_EPOCH":9692,"BSTAR":4.3806127e-5,"MEAN_MOTION_DOT":9.38e-6,"MEAN_MOTION_DDOT":0}]
